[{"OBJECT_NAME":"SHUNTIAN ","OBJECT_ID":"2019-093H","EPOCH":"2026-03-09T22:37:28.644960","MEAN_MOTION":14.94616116,"ECCENTRICITY":0.00128401,"INCLINATION":97.8015,"RA_OF_ASC_NODE":157.6565,"ARG_OF_PERICENTER":41.7431,"MEAN_ANOMALY":318.4767,"EPHEMERIS_TYPE":0,"CLASSIFICATION_TYPE":"U","NORAD_CAT_ID":44886,"ELEMENT_SET_NO":999,"REV_AT_EPOCH":33735,"BSTAR":0.00022413276,"MEAN_MOTION_DOT":2.372e-5,"MEAN_MOTION_DDOT":0},{"OBJECT_NAME":"STARLINK-34335","OBJECT_ID":"2025-126U","EPOCH":"2026-03-09T22:46:15.672864","MEAN_MOTION":14.98322549,"ECCENTRICITY":0.00032243,"INCLINATION":70.0025,"RA_OF_ASC_NODE":33.6858,"ARG_OF_PERICENTER":265.9862,"MEAN_ANOMALY":94.0928,"EPHEMERIS_TYPE":0,"CLASSIFICATION_TYPE":"U","NORAD_CAT_ID":64362,"ELEMENT_SET_NO":999,"REV_AT_EPOCH":4072,"BSTAR":0.0010766821,"MEAN_MOTION_DOT":0.00012775,"MEAN_MOTION_DDOT":0}]
